IRIDIUM 151             
1 43074U 17083E   24303.26498022  .00001707  00000+0  60225-3 0  9994
2 43074  86.4025 211.0698 0001971  79.9485 280.1933 14.34211926358726
IRIDIUM 134             
1 43075U 17083F   24304.14024391  .00001072  00000+0  37540-3 0  9996
2 43075  86.4027 210.7045 0002241  80.1070 280.0379 14.34234360358816
IRIDIUM 137             
1 43076U 17083G   24303.66455505  .00001202  00000+0  42199-3 0  9999
2 43076  86.4027 210.9832 0001961  66.2514 293.8887 14.34228293358813
IRIDIUM 141             
1 43077U 17083H   24304.14660162  .00001032  00000+0  36135-3 0  9995
2 43077  86.4023 210.6471 0002043  85.1622 274.9807 14.34225206358888
IRIDIUM 153             
1 43078U 17083J   24303.68017300  .00000829  00000+0  28886-3 0  9991
2 43078  86.4029 179.3730 0001944 102.9639 257.1774 14.34222378359928
IRIDIUM 131             
1 43079U 17083K   24303.99438363  .00000951  00000+0  33239-3 0  9996
2 43079  86.4026 210.8566 0001906  82.7099 277.4313 14.34221905358790
IRIDIUM 144             
1 43249U 18030A   24304.10512478  .00001163  00000+0  40818-3 0  9999
2 43249  86.4025 179.1392 0002139  81.3697 278.7741 14.34226272344864
IRIDIUM 149             
1 43250U 18030B   24303.90216724  .00001112  00000+0  38999-3 0  9994
2 43250  86.4023 179.1976 0001979  78.2953 281.8464 14.34221198344839
IRIDIUM 157             
1 43251U 18030C   24303.92118684  .00000111  00000+0  32483-4 0  9994
2 43251  86.4027 179.2294 0001810  82.5817 277.5584 14.34223901344816
IRIDIUM 140             
1 43252U 18030D   24303.59137931  .00001014  00000+0  35505-3 0  9994
2 43252  86.4025 179.3809 0002163  84.6351 275.5092 14.34219780344829
IRIDIUM 145             
1 43253U 18030E   24303.71823197  .00000253  00000+0  83317-4 0  9994
2 43253  86.4024 179.3015 0002437  75.1850 284.9615 14.34219631344775
IRIDIUM 146             
1 43254U 18030F   24303.90850971  .00000257  00000+0  84663-4 0  9995
2 43254  86.4025 179.2370 0002196  75.1057 285.0381 14.34217298344815
IRIDIUM 148             
1 43255U 18030G   24304.08610470  .00000028  00000+0  30803-5 0  9998
2 43255  86.4029 179.1966 0001977  76.1058 284.0358 14.34217861344884
IRIDIUM 142             
1 43256U 18030H   24303.91485153  .00000812  00000+0  28280-3 0  9993
2 43256  86.4021 179.1789 0002157  70.0245 290.1183 14.34219321344812
IRIDIUM 150             
1 43257U 18030J   24303.95290315  .00001149  00000+0  40312-3 0  9996
2 43257  86.4027 179.2595 0002293  77.2805 282.8647 14.34224746344862
IRIDIUM 143             
1 43258U 18030K   24303.37572838  .00000837  00000+0  29169-3 0  9996
2 43258  86.4029 179.5696 0002444  73.6541 286.4924 14.34223286344692
IRIDIUM 161             
1 43478U 18047C   24304.03304746  .00001483  00000+0  43468-3 0  9999
2 43478  86.4495 337.2018 0002187  96.1762 263.9688 14.43295880339299
